OBJECT_NAME,OBJECT_ID,EPOCH,MEAN_MOTION,ECCENTRICITY,INCLINATION,RA_OF_ASC_NODE,ARG_OF_PERICENTER,MEAN_ANOMALY,EPHEMERIS_TYPE,CLASSIFICATION_TYPE,NORAD_CAT_ID,ELEMENT_SET_NO,REV_AT_EPOCH,BSTAR,MEAN_MOTION_DOT,MEAN_MOTION_DDOT
STARLINK-3140,2021-104BE,2026-07-21T08:00:01.999872,15.29641250,.00009759,53.1598,337.5130,55.0393,344.7851,0,U,49460,999,581,.3019049E-2,.88582E-3,0
GLOBAL-14,2021-106A,2026-07-21T01:52:10.943616,15.52020414,.00184858,42.0038,89.4337,262.3295,97.5450,0,U,49469,999,26339,.31387937E-3,.19262E-3,0
GAOFEN-11 03,2021-107A,2026-07-21T06:25:57.988128,15.23657968,.00046107,97.2065,245.0806,325.8942,34.1999,0,U,49492,999,25982,.14942561E-3,.3515E-4,0
GAOFEN-3 02,2021-109A,2026-07-21T07:43:05.948832,14.42211190,.00014701,98.4101,209.9345,227.0623,133.0443,0,U,49495,999,24523,.36953582E-4,.78E-6,0
COSMOS 2552,2021-113A,2026-07-20T20:00:44.380800,2.00614639,.64224042,62.8355,204.3641,272.4645,20.7681,0,U,49503,999,3407,0,-.98E-6,0
ZHONGXING-1D,2021-114A,2026-07-21T06:51:23.392224,1.00273810,.0000427,0.0194,229.1896,97.6617,205.1986,0,U,49505,999,1716,0,-.335E-5,0
STARLINK-3219,2021-115A,2026-07-20T09:06:31.633056,15.31706126,.000163,53.1593,268.9828,76.3593,283.7590,0,U,49724,999,25562,-.11492E-3,-.3931E-4,0
STARLINK-3218,2021-115B,2026-07-21T08:00:01.999872,15.29047875,.0002157,53.1614,267.8688,74.2050,60.6443,0,U,49725,999,560,.17900463E-2,.51166E-3,0
STARLINK-3242,2021-115D,2026-07-21T08:00:01.999872,15.35411284,.00009689,53.1591,276.2171,89.4787,5.6897,0,U,49727,999,581,-.638063E-3,-.22578E-3,0
STARLINK-3240,2021-115E,2026-07-21T04:06:16.236000,15.34391842,.00011912,53.1601,276.0731,72.6399,287.4733,0,U,49728,999,25559,.22129118E-4,.371E-5,0
STARLINK-3251,2021-115F,2026-07-21T08:00:01.999872,15.31720217,.00008358,53.1597,276.5756,74.1702,157.7407,0,U,49729,999,575,-.45902717E-3,-.1459E-3,0
STARLINK-3249,2021-115G,2026-07-21T04:13:05.303712,15.35402004,.00011244,53.1615,276.6831,78.3159,281.7970,0,U,49730,999,25558,.50783321E-4,.1391E-4,0
STARLINK-3246,2021-115J,2026-07-21T08:00:01.999872,15.31654800,.00009687,53.1592,276.5784,36.8912,92.2440,0,U,49732,999,560,.16346229E-3,.4704E-4,0
STARLINK-3252,2021-115K,2026-07-20T21:55:54.904224,15.31704143,.00012111,53.1604,278.5602,90.3237,269.7903,0,U,49733,999,25553,.52591243E-4,.1267E-4,0
STARLINK-3238,2021-115L,2026-07-20T21:11:23.782560,15.31697460,.00011704,53.1607,266.7908,65.7441,294.3682,0,U,49734,999,25569,-.17394587E-4,-.905E-5,0
STARLINK-3113,2021-115M,2026-07-20T09:57:05.128416,15.35396637,.00011506,53.1609,279.6856,89.1120,271.0015,0,U,49735,999,25547,.40733009E-4,.104E-4,0
STARLINK-3148,2021-115N,2026-07-21T08:00:01.999872,15.29885376,.00015324,53.1590,267.5791,124.4632,106.6888,0,U,49736,999,580,.17963579E-2,.52705E-3,0
STARLINK-3225,2021-115P,2026-07-21T05:04:27.682464,15.08832688,.00011196,53.1602,269.4223,86.0956,274.0164,0,U,49737,999,25569,.20251809E-4,.34E-6,0
STARLINK-3143,2021-115Q,2026-07-21T04:42:09.221184,15.12032262,.00006197,53.2144,268.8528,9.4671,350.6334,0,U,49738,999,25570,.36081117E-3,.598E-4,0
STARLINK-3155,2021-115R,2026-07-21T08:00:01.999872,15.24349843,.0000768,53.1593,277.3886,52.1659,4.2298,0,U,49739,999,581,.44396439E-3,.10686E-3,0
STARLINK-3226,2021-115S,2026-07-21T05:14:35.253312,15.31702787,.00008718,53.1599,265.0673,66.4531,293.6562,0,U,49740,999,25575,.356971E-4,.743E-5,0
STARLINK-3244,2021-115T,2026-07-20T10:20:22.435008,15.31692063,.00001349,53.1625,268.7611,347.2085,12.8913,0,U,49741,999,25563,.90141839E-4,.2433E-4,0
STARLINK-3202,2021-115U,2026-07-21T08:00:01.999872,15.25975326,.00017724,53.1601,267.5224,73.3169,67.3871,0,U,49742,999,581,.46780072E-3,.11854E-3,0
STARLINK-3239,2021-115V,2026-07-20T21:31:31.032480,15.31697561,.00011811,53.1593,266.6546,75.8487,284.2646,0,U,49743,999,25570,.11119426E-4,-.2E-6,0
STARLINK-3231,2021-115W,2026-07-20T21:44:55.684320,15.31715914,.00012068,53.1595,266.5167,75.9343,284.1792,0,U,49744,999,25570,.6305681E-4,.1593E-4,0
STARLINK-3241,2021-115X,2026-07-21T04:14:13.195104,15.31705527,.00010477,53.1601,265.4750,64.3973,295.7136,0,U,49745,999,25574,.39373267E-4,.857E-5,0
STARLINK-3233,2021-115Y,2026-07-21T04:27:21.891456,15.08833613,.00007307,53.1597,269.5385,91.9208,268.1868,0,U,49746,999,25568,.36143775E-4,.287E-5,0
STARLINK-3247,2021-115Z,2026-07-21T04:11:28.159008,15.08834524,.00012105,53.1598,269.5875,90.9880,269.1251,0,U,49747,999,25568,.63087047E-4,.716E-5,0
STARLINK-3248,2021-115AA,2026-07-21T05:14:59.405568,15.08826747,.00008055,53.1589,268.9622,80.8902,279.2180,0,U,49748,999,25570,-.8572372E-5,-.424E-5,0
STARLINK-3250,2021-115AB,2026-07-20T11:07:20.930880,15.31706694,.00011114,53.1598,268.6883,72.9155,287.1968,0,U,49749,999,25563,.46477359E-4,.1078E-4,0
