STARLINK-3140           
1 49460U 21104BE  26202.33335648  .00088582  00000+0  30190-2 0  9993
2 49460  53.1598 337.5130 0000975  55.0393 344.7851 15.29641250  5815
GLOBAL-14               
1 49469U 21106A   26202.07790444  .00019262  00000+0  31388-3 0  9994
2 49469  42.0038  89.4337 0018485 262.3295  97.5450 15.52020414263397
GAOFEN-11 03            
1 49492U 21107A   26202.26803227  .00003515  00000+0  14943-3 0  9998
2 49492  97.2065 245.0806 0004610 325.8942  34.1999 15.23657968259821
GAOFEN-3 02             
1 49495U 21109A   26202.32159663  .00000078  00000+0  36954-4 0  9996
2 49495  98.4101 209.9345 0001470 227.0623 133.0443 14.42211190245231
COSMOS 2552             
1 49503U 21113A   26201.83384700 -.00000098  00000+0  00000+0 0  9999
2 49503  62.8355 204.3641 6422404 272.4645  20.7681  2.00614639 34073
ZHONGXING-1D            
1 49505U 21114A   26202.28568741 -.00000335  00000+0  00000+0 0  9995
2 49505   0.0194 229.1896 0000427  97.6617 205.1986  1.00273810 17163
STARLINK-3219           
1 49724U 21115A   26201.37953279 -.00003931  00000+0 -11492-3 0  9999
2 49724  53.1593 268.9828 0001630  76.3593 283.7590 15.31706126255626
STARLINK-3218           
1 49725U 21115B   26202.33335648  .00051166  00000+0  17900-2 0  9991
2 49725  53.1614 267.8688 0002157  74.2050  60.6443 15.29047875  5609
STARLINK-3242           
1 49727U 21115D   26202.33335648 -.00022578  00000+0 -63806-3 0  9997
2 49727  53.1591 276.2171 0000968  89.4787   5.6897 15.35411284  5810
STARLINK-3240           
1 49728U 21115E   26202.17102125  .00000371  00000+0  22129-4 0  9991
2 49728  53.1601 276.0731 0001191  72.6399 287.4733 15.34391842255592
STARLINK-3251           
1 49729U 21115F   26202.33335648 -.00014590  00000+0 -45903-3 0  9992
2 49729  53.1597 276.5756 0000835  74.1702 157.7407 15.31720217  5755
STARLINK-3249           
1 49730U 21115G   26202.17575583  .00001391  00000+0  50783-4 0  9996
2 49730  53.1615 276.6831 0001124  78.3159 281.7970 15.35402004255583
STARLINK-3246           
1 49732U 21115J   26202.33335648  .00004704  00000+0  16346-3 0  9999
2 49732  53.1592 276.5784 0000968  36.8912  92.2440 15.31654800  5608
STARLINK-3252           
1 49733U 21115K   26201.91382991  .00001267  00000+0  52591-4 0  9990
2 49733  53.1604 278.5602 0001211  90.3237 269.7903 15.31704143255531
STARLINK-3238           
1 49734U 21115L   26201.88291415 -.00000905  00000+0 -17395-4 0  9990
2 49734  53.1607 266.7908 0001170  65.7441 294.3682 15.31697460255698
STARLINK-3113           
1 49735U 21115M   26201.41464269  .00001040  00000+0  40733-4 0  9990
2 49735  53.1609 279.6856 0001150  89.1120 271.0015 15.35396637255472
STARLINK-3148           
1 49736U 21115N   26202.33335648  .00052705  00000+0  17964-2 0  9993
2 49736  53.1590 267.5791 0001532 124.4632 106.6888 15.29885376  5808
STARLINK-3225           
1 49737U 21115P   26202.21143151  .00000034  00000+0  20252-4 0  9991
2 49737  53.1602 269.4223 0001119  86.0956 274.0164 15.08832688255693
STARLINK-3143           
1 49738U 21115Q   26202.19594006  .00005980  00000+0  36081-3 0  9999
2 49738  53.2144 268.8528 0000619   9.4671 350.6334 15.12032262255701
STARLINK-3155           
1 49739U 21115R   26202.33335648  .00010686  00000+0  44396-3 0  9998
2 49739  53.1593 277.3886 0000768  52.1659   4.2298 15.24349843  5812
STARLINK-3226           
1 49740U 21115S   26202.21846358  .00000743  00000+0  35697-4 0  9990
2 49740  53.1599 265.0673 0000871  66.4531 293.6562 15.31702787255756
STARLINK-3244           
1 49741U 21115T   26201.43081522  .00002433  00000+0  90142-4 0  9992
2 49741  53.1625 268.7611 0000134 347.2085  12.8913 15.31692063255638
STARLINK-3202           
1 49742U 21115U   26202.33335648  .00011854  00000+0  46780-3 0  9999
2 49742  53.1601 267.5224 0001772  73.3169  67.3871 15.25975326  5819
STARLINK-3239           
1 49743U 21115V   26201.89688695 -.00000020  00000+0  11119-4 0  9996
2 49743  53.1593 266.6546 0001181  75.8487 284.2646 15.31697561255705
STARLINK-3231           
1 49744U 21115W   26201.90620005  .00001593  00000+0  63057-4 0  9993
2 49744  53.1595 266.5167 0001206  75.9343 284.1792 15.31715914255700
STARLINK-3241           
1 49745U 21115X   26202.17654161  .00000857  00000+0  39373-4 0  9990
2 49745  53.1601 265.4750 0001047  64.3973 295.7136 15.31705527255742
STARLINK-3233           
1 49746U 21115Y   26202.18567004  .00000287  00000+0  36144-4 0  9991
2 49746  53.1597 269.5385 0000730  91.9208 268.1868 15.08833613255682
STARLINK-3247           
1 49747U 21115Z   26202.17463147  .00000716  00000+0  63087-4 0  9997
2 49747  53.1598 269.5875 0001210  90.9880 269.1251 15.08834524255686
STARLINK-3248           
1 49748U 21115AA  26202.21874312 -.00000424  00000+0 -85724-5 0  9994
2 49748  53.1589 268.9622 0000805  80.8902 279.2180 15.08826747255706
STARLINK-3250           
1 49749U 21115AB  26201.46343670  .00001078  00000+0  46477-4 0  9994
2 49749  53.1598 268.6883 0001111  72.9155 287.1968 15.31706694255634
